[{"OBJECT_NAME":"STARLINK-4482","OBJECT_ID":"2022-101D","EPOCH":"2026-01-22T18:00:08.765280","MEAN_MOTION":15.08818208,"ECCENTRICITY":8.23e-5,"INCLINATION":53.2177,"RA_OF_ASC_NODE":280.5772,"ARG_OF_PERICENTER":35.0395,"MEAN_ANOMALY":325.0651,"EPHEMERIS_TYPE":0,"CLASSIFICATION_TYPE":"U","NORAD_CAT_ID":53530,"ELEMENT_SET_NO":999,"REV_AT_EPOCH":18922,"BSTAR":0.0002226338,"MEAN_MOTION_DOT":3.255e-5,"MEAN_MOTION_DDOT":0},{"OBJECT_NAME":"STARLINK-4487","OBJECT_ID":"2022-101E","EPOCH":"2026-01-22T23:55:09.881760","MEAN_MOTION":15.08840567,"ECCENTRICITY":9.33e-5,"INCLINATION":53.2165,"RA_OF_ASC_NODE":279.2489,"ARG_OF_PERICENTER":102.542,"MEAN_ANOMALY":257.5676,"EPHEMERIS_TYPE":0,"CLASSIFICATION_TYPE":"U","NORAD_CAT_ID":53531,"ELEMENT_SET_NO":999,"REV_AT_EPOCH":18926,"BSTAR":0.00074050527,"MEAN_MOTION_DOT":0.00011517,"MEAN_MOTION_DDOT":0},{"OBJECT_NAME":"STARLINK-4483","OBJECT_ID":"2022-101F","EPOCH":"2026-01-22T23:07:28.401024","MEAN_MOTION":15.08839539,"ECCENTRICITY":0.00012817,"INCLINATION":53.2156,"RA_OF_ASC_NODE":279.3959,"ARG_OF_PERICENTER":65.5077,"MEAN_ANOMALY":294.6049,"EPHEMERIS_TYPE":0,"CLASSIFICATION_TYPE":"U","NORAD_CAT_ID":53532,"ELEMENT_SET_NO":999,"REV_AT_EPOCH":18926,"BSTAR":0.00077464412,"MEAN_MOTION_DOT":0.00012062,"MEAN_MOTION_DDOT":0},{"OBJECT_NAME":"STARLINK-4493","OBJECT_ID":"2022-101G","EPOCH":"2026-01-22T10:19:04.535904","MEAN_MOTION":15.08812542,"ECCENTRICITY":0.00015291,"INCLINATION":53.2162,"RA_OF_ASC_NODE":281.7814,"ARG_OF_PERICENTER":89.5119,"MEAN_ANOMALY":270.6049,"EPHEMERIS_TYPE":0,"CLASSIFICATION_TYPE":"U","NORAD_CAT_ID":53533,"ELEMENT_SET_NO":999,"REV_AT_EPOCH":18918,"BSTAR":0.00014439331,"MEAN_MOTION_DOT":2.009e-5,"MEAN_MOTION_DDOT":0},{"OBJECT_NAME":"STARLINK-4138","OBJECT_ID":"2022-101J","EPOCH":"2026-01-22T16:35:19.778496","MEAN_MOTION":15.08828835,"ECCENTRICITY":8.957e-5,"INCLINATION":53.2166,"RA_OF_ASC_NODE":280.6178,"ARG_OF_PERICENTER":102.2626,"MEAN_ANOMALY":257.8466,"EPHEMERIS_TYPE":0,"CLASSIFICATION_TYPE":"U","NORAD_CAT_ID":53535,"ELEMENT_SET_NO":999,"REV_AT_EPOCH":18922,"BSTAR":0.00034022556,"MEAN_MOTION_DOT":5.129e-5,"MEAN_MOTION_DDOT":0},{"OBJECT_NAME":"STARLINK-4053","OBJECT_ID":"2022-101K","EPOCH":"2026-01-22T09:37:57.178272","MEAN_MOTION":15.08864315,"ECCENTRICITY":0.0001129,"INCLINATION":53.2171,"RA_OF_ASC_NODE":271.8418,"ARG_OF_PERICENTER":87.5506,"MEAN_ANOMALY":272.5616,"EPHEMERIS_TYPE":0,"CLASSIFICATION_TYPE":"U","NORAD_CAT_ID":53536,"ELEMENT_SET_NO":999,"REV_AT_EPOCH":18931,"BSTAR":0.00034887403,"MEAN_MOTION_DOT":5.272e-5,"MEAN_MOTION_DDOT":0},{"OBJECT_NAME":"STARLINK-4120","OBJECT_ID":"2022-101L","EPOCH":"2026-01-22T10:15:09.129600","MEAN_MOTION":15.08827165,"ECCENTRICITY":0.00013188,"INCLINATION":53.2171,"RA_OF_ASC_NODE":281.7753,"ARG_OF_PERICENTER":90.0402,"MEAN_ANOMALY":270.0741,"EPHEMERIS_TYPE":0,"CLASSIFICATION_TYPE":"U","NORAD_CAT_ID":53537,"ELEMENT_SET_NO":999,"REV_AT_EPOCH":18918,"BSTAR":-0.00014181308,"MEAN_MOTION_DOT":-2.543e-5,"MEAN_MOTION_DDOT":0},{"OBJECT_NAME":"STARLINK-4118","OBJECT_ID":"2022-101M","EPOCH":"2026-01-23T00:00:02.999808","MEAN_MOTION":15.94130895,"ECCENTRICITY":0.00010394,"INCLINATION":53.2131,"RA_OF_ASC_NODE":255.682,"ARG_OF_PERICENTER":151.9869,"MEAN_ANOMALY":237.0911,"EPHEMERIS_TYPE":0,"CLASSIFICATION_TYPE":"U","NORAD_CAT_ID":53538,"ELEMENT_SET_NO":999,"REV_AT_EPOCH":578,"BSTAR":0.0031171186,"MEAN_MOTION_DOT":0.01171736,"MEAN_MOTION_DDOT":0.00064887159},{"OBJECT_NAME":"STARLINK-4123","OBJECT_ID":"2022-101N","EPOCH":"2026-01-22T10:08:29.040576","MEAN_MOTION":15.08824344,"ECCENTRICITY":0.00014878,"INCLINATION":53.219,"RA_OF_ASC_NODE":281.8259,"ARG_OF_PERICENTER":91.3747,"MEAN_ANOMALY":268.7415,"EPHEMERIS_TYPE":0,"CLASSIFICATION_TYPE":"U","NORAD_CAT_ID":53539,"ELEMENT_SET_NO":999,"REV_AT_EPOCH":18918,"BSTAR":-0.00015529745,"MEAN_MOTION_DOT":-2.758e-5,"MEAN_MOTION_DDOT":0},{"OBJECT_NAME":"STARLINK-4486","OBJECT_ID":"2022-101P","EPOCH":"2026-01-22T23:10:14.141280","MEAN_MOTION":15.08845708,"ECCENTRICITY":9.535e-5,"INCLINATION":53.2159,"RA_OF_ASC_NODE":269.7449,"ARG_OF_PERICENTER":98.0838,"MEAN_ANOMALY":262.0262,"EPHEMERIS_TYPE":0,"CLASSIFICATION_TYPE":"U","NORAD_CAT_ID":53540,"ELEMENT_SET_NO":999,"REV_AT_EPOCH":19008,"BSTAR":0.00072707472,"MEAN_MOTION_DOT":0.00011304,"MEAN_MOTION_DDOT":0},{"OBJECT_NAME":"STARLINK-4485","OBJECT_ID":"2022-101Q","EPOCH":"2026-01-22T16:19:25.481856","MEAN_MOTION":15.08830448,"ECCENTRICITY":7.964e-5,"INCLINATION":53.2175,"RA_OF_ASC_NODE":280.669,"ARG_OF_PERICENTER":124.7287,"MEAN_ANOMALY":235.378,"EPHEMERIS_TYPE":0,"CLASSIFICATION_TYPE":"U","NORAD_CAT_ID":53541,"ELEMENT_SET_NO":999,"REV_AT_EPOCH":18991,"BSTAR":7.6922672e-5,"MEAN_MOTION_DOT":9.36e-6,"MEAN_MOTION_DDOT":0},{"OBJECT_NAME":"STARLINK-4489","OBJECT_ID":"2022-101R","EPOCH":"2026-01-22T09:27:25.040448","MEAN_MOTION":15.08824644,"ECCENTRICITY":7.156e-5,"INCLINATION":53.2149,"RA_OF_ASC_NODE":271.9556,"ARG_OF_PERICENTER":89.615,"MEAN_ANOMALY":270.4924,"EPHEMERIS_TYPE":0,"CLASSIFICATION_TYPE":"U","NORAD_CAT_ID":53542,"ELEMENT_SET_NO":999,"REV_AT_EPOCH":19000,"BSTAR":0.00067487305,"MEAN_MOTION_DOT":0.00010465,"MEAN_MOTION_DDOT":0},{"OBJECT_NAME":"STARLINK-4297","OBJECT_ID":"2022-101S","EPOCH":"2026-01-22T22:31:42.473856","MEAN_MOTION":15.08836017,"ECCENTRICITY":6.681e-5,"INCLINATION":53.2162,"RA_OF_ASC_NODE":269.5708,"ARG_OF_PERICENTER":77.0129,"MEAN_ANOMALY":283.0938,"EPHEMERIS_TYPE":0,"CLASSIFICATION_TYPE":"U","NORAD_CAT_ID":53543,"ELEMENT_SET_NO":999,"REV_AT_EPOCH":19008,"BSTAR":0.00032077009,"MEAN_MOTION_DOT":4.821e-5,"MEAN_MOTION_DDOT":0},{"OBJECT_NAME":"STARLINK-4303","OBJECT_ID":"2022-101T","EPOCH":"2026-01-22T09:16:49.344672","MEAN_MOTION":15.08829567,"ECCENTRICITY":0.00011164,"INCLINATION":53.2168,"RA_OF_ASC_NODE":271.9869,"ARG_OF_PERICENTER":90.4644,"MEAN_ANOMALY":269.6476,"EPHEMERIS_TYPE":0,"CLASSIFICATION_TYPE":"U","NORAD_CAT_ID":53544,"ELEMENT_SET_NO":999,"REV_AT_EPOCH":18998,"BSTAR":0.0011857677,"MEAN_MOTION_DOT":0.00018628,"MEAN_MOTION_DDOT":0},{"OBJECT_NAME":"STARLINK-4475","OBJECT_ID":"2022-101U","EPOCH":"2026-01-22T15:54:14.959296","MEAN_MOTION":15.08838645,"ECCENTRICITY":0.00010829,"INCLINATION":53.2179,"RA_OF_ASC_NODE":270.7459,"ARG_OF_PERICENTER":73.6854,"MEAN_ANOMALY":286.4257,"EPHEMERIS_TYPE":0,"CLASSIFICATION_TYPE":"U","NORAD_CAT_ID":53545,"ELEMENT_SET_NO":999,"REV_AT_EPOCH":19004,"BSTAR":-2.2173411e-5,"MEAN_MOTION_DOT":-6.41e-6,"MEAN_MOTION_DDOT":0},{"OBJECT_NAME":"STARLINK-4477","OBJECT_ID":"2022-101V","EPOCH":"2026-01-22T16:00:46.841184","MEAN_MOTION":15.08841908,"ECCENTRICITY":9.1e-5,"INCLINATION":53.2164,"RA_OF_ASC_NODE":260.2575,"ARG_OF_PERICENTER":67.2985,"MEAN_ANOMALY":292.8103,"EPHEMERIS_TYPE":0,"CLASSIFICATION_TYPE":"U","NORAD_CAT_ID":53546,"ELEMENT_SET_NO":999,"REV_AT_EPOCH":18950,"BSTAR":0.00034728889,"MEAN_MOTION_DOT":5.244e-5,"MEAN_MOTION_DDOT":0},{"OBJECT_NAME":"STARLINK-4474","OBJECT_ID":"2022-101W","EPOCH":"2026-01-22T17:19:02.580096","MEAN_MOTION":15.08829325,"ECCENTRICITY":0.00015062,"INCLINATION":53.2174,"RA_OF_ASC_NODE":270.4806,"ARG_OF_PERICENTER":58.8672,"MEAN_ANOMALY":301.2467,"EPHEMERIS_TYPE":0,"CLASSIFICATION_TYPE":"U","NORAD_CAT_ID":53547,"ELEMENT_SET_NO":999,"REV_AT_EPOCH":19003,"BSTAR":-0.00016303282,"MEAN_MOTION_DOT":-2.881e-5,"MEAN_MOTION_DDOT":0},{"OBJECT_NAME":"STARLINK-4513","OBJECT_ID":"2022-101X","EPOCH":"2026-01-22T23:19:22.700064","MEAN_MOTION":15.08831943,"ECCENTRICITY":0.00013081,"INCLINATION":53.219,"RA_OF_ASC_NODE":269.3604,"ARG_OF_PERICENTER":97.4433,"MEAN_ANOMALY":262.6708,"EPHEMERIS_TYPE":0,"CLASSIFICATION_TYPE":"U","NORAD_CAT_ID":53548,"ELEMENT_SET_NO":999,"REV_AT_EPOCH":18940,"BSTAR":-7.5268185e-5,"MEAN_MOTION_DOT":-1.485e-5,"MEAN_MOTION_DDOT":0},{"OBJECT_NAME":"STARLINK-4518","OBJECT_ID":"2022-101Z","EPOCH":"2026-01-23T00:00:02.999808","MEAN_MOTION":15.90789674,"ECCENTRICITY":7.045e-5,"INCLINATION":53.2135,"RA_OF_ASC_NODE":257.416,"ARG_OF_PERICENTER":170.1062,"MEAN_ANOMALY":240.5048,"EPHEMERIS_TYPE":0,"CLASSIFICATION_TYPE":"U","NORAD_CAT_ID":53550,"ELEMENT_SET_NO":999,"REV_AT_EPOCH":566,"BSTAR":0.0040416303,"MEAN_MOTION_DOT":0.01274811,"MEAN_MOTION_DDOT":0.00074695191},{"OBJECT_NAME":"STARLINK-4514","OBJECT_ID":"2022-101AA","EPOCH":"2026-01-22T17:03:08.659296","MEAN_MOTION":15.0882006,"ECCENTRICITY":0.00012837,"INCLINATION":53.216,"RA_OF_ASC_NODE":270.5324,"ARG_OF_PERICENTER":100.8586,"MEAN_ANOMALY":259.2551,"EPHEMERIS_TYPE":0,"CLASSIFICATION_TYPE":"U","NORAD_CAT_ID":53551,"ELEMENT_SET_NO":999,"REV_AT_EPOCH":19002,"BSTAR":0.00050989946,"MEAN_MOTION_DOT":7.832e-5,"MEAN_MOTION_DDOT":0},{"OBJECT_NAME":"STARLINK-4495","OBJECT_ID":"2022-101AB","EPOCH":"2026-01-21T23:12:42.722496","MEAN_MOTION":15.0881697,"ECCENTRICITY":0.00016028,"INCLINATION":53.2154,"RA_OF_ASC_NODE":273.8716,"ARG_OF_PERICENTER":56.8803,"MEAN_ANOMALY":303.2343,"EPHEMERIS_TYPE":0,"CLASSIFICATION_TYPE":"U","NORAD_CAT_ID":53552,"ELEMENT_SET_NO":999,"REV_AT_EPOCH":18990,"BSTAR":-8.3790608e-5,"MEAN_MOTION_DOT":-1.62e-5,"MEAN_MOTION_DDOT":0},{"OBJECT_NAME":"STARLINK-4501","OBJECT_ID":"2022-101AC","EPOCH":"2026-01-22T16:31:18.679296","MEAN_MOTION":15.08861666,"ECCENTRICITY":0.00011063,"INCLINATION":53.2208,"RA_OF_ASC_NODE":270.5033,"ARG_OF_PERICENTER":121.6988,"MEAN_ANOMALY":238.4112,"EPHEMERIS_TYPE":0,"CLASSIFICATION_TYPE":"U","NORAD_CAT_ID":53553,"ELEMENT_SET_NO":999,"REV_AT_EPOCH":19002,"BSTAR":-0.0002614805,"MEAN_MOTION_DOT":-4.449e-5,"MEAN_MOTION_DDOT":0},{"OBJECT_NAME":"STARLINK-4506","OBJECT_ID":"2022-101AD","EPOCH":"2026-01-22T16:32:43.620000","MEAN_MOTION":15.08822333,"ECCENTRICITY":0.00019066,"INCLINATION":53.2181,"RA_OF_ASC_NODE":270.6342,"ARG_OF_PERICENTER":86.9126,"MEAN_ANOMALY":273.2085,"EPHEMERIS_TYPE":0,"CLASSIFICATION_TYPE":"U","NORAD_CAT_ID":53554,"ELEMENT_SET_NO":999,"REV_AT_EPOCH":18936,"BSTAR":-7.9235932e-5,"MEAN_MOTION_DOT":-1.548e-5,"MEAN_MOTION_DDOT":0}]
